[{"OBJECT_NAME":"ONEWEB-0621","OBJECT_ID":"2023-004Y","EPOCH":"2026-03-09T21:40:41.791872","MEAN_MOTION":13.11417538,"ECCENTRICITY":0.0001609,"INCLINATION":87.8873,"RA_OF_ASC_NODE":40.799,"ARG_OF_PERICENTER":83.3986,"MEAN_ANOMALY":276.7325,"EPHEMERIS_TYPE":0,"CLASSIFICATION_TYPE":"U","NORAD_CAT_ID":55162,"ELEMENT_SET_NO":999,"REV_AT_EPOCH":15279,"BSTAR":0.0014640637,"MEAN_MOTION_DOT":5.32e-6,"MEAN_MOTION_DDOT":0},{"OBJECT_NAME":"COSMOS 2251 DEB","OBJECT_ID":"1993-036ACR","EPOCH":"2026-03-09T23:28:57.334368","MEAN_MOTION":13.44300926,"ECCENTRICITY":0.04352568,"INCLINATION":73.9619,"RA_OF_ASC_NODE":268.8908,"ARG_OF_PERICENTER":235.7733,"MEAN_ANOMALY":197.4227,"EPHEMERIS_TYPE":0,"CLASSIFICATION_TYPE":"U","NORAD_CAT_ID":34878,"ELEMENT_SET_NO":999,"REV_AT_EPOCH":82445,"BSTAR":0.00043519449,"MEAN_MOTION_DOT":4.24e-6,"MEAN_MOTION_DDOT":0}]
